139P/Vaisala-Oterma,e,2.3343,242.1667,165.7137,4.521958,0.1024977,0.24694773,139.1157,08/28.0/2021,2000,g  9.5,4.0
# From MPEC 2015-E14
140P/Bowell-Skiff,e,3.8358,343.2669,172.8552,6.427854,0.0604791,0.69166724,133.9635,08/28.0/2021,2000,g 11.5,6.0
# From MPEC 2021-AJ0
141P/Machholz,e,13.9452,241.8401,153.5515,3.057307,0.1843722,0.73577491,46.9610,08/28.0/2021,2000,g 14.7,4.0
# From MPC133426
142P/Ge-Wang,e,12.2509,175.9318,173.9526,5.000222,0.0881496,0.49743207,9.4660,08/28.0/2021,2000,g 15.2,4.0
# From MPEC 2021-N06
143P/Kowal-Mrkos,e,4.6988,245.2059,320.3788,4.281331,0.1112592,0.41089535,134.7125,08/28.0/2021,2000,g 13.5,2.0
# From MPC104795
144P/Kushida,e,3.9372,243.2213,216.2959,3.820780,0.1319702,0.63588541,243.7794,08/28.0/2021,2000,g  8.5,8.0
# From MPC108598
145P/Shoemaker-Levy,e,11.2743,26.7888,10.2398,4.138171,0.1170824,0.54158384,170.5275,08/28.0/2021,2000,g 13.5,4.0
# From MPC100284
146P/Shoemaker-LINEAR,e,23.0994,53.3931,316.9541,4.031920,0.1217408,0.64712322,229.3098,08/28.0/2021,2000,g 15.0,4.0
# From MPC 75720
147P/Kushida-Muramatsu,e,2.3273,92.8638,349.3588,4.007128,0.1228724,0.22698941,257.7030,08/28.0/2021,2000,g 14.0,4.0
# From MPEC 2014-R70
148P/Anderson-LINEAR,e,3.6578,89.2249,7.9479,3.620868,0.1430491,0.54998060,318.5784,08/28.0/2021,2000,g  9.0,4.0
# From MPC 75720
149P/Mueller,e,36.4881,144.5452,33.9822,4.148692,0.1166372,0.33737593,123.8230,08/28.0/2021,2000,g  8.0,8.0
# From MPC 75720
150P/LONEOS,e,18.5056,272.3632,245.5703,3.879410,0.1289898,0.54726045,240.2224,08/28.0/2021,2000,g 13.5,4.0
# From MPEC 2015-Q71
151P/Helin,e,4.7287,143.1579,216.0523,5.763348,0.0712347,0.57359805,153.0071,08/28.0/2021,2000,g 10.0,6.0
# From MPEC 2021-F20
152P/Helin-Lawrence,e,9.8800,91.8599,163.9232,4.477476,0.1040289,0.30876595,345.5829,08/28.0/2021,2000,g 12.6,4.0
# From MPC 46101
153P/Ikeya-Zhang,e,27.8494,93.1826,35.0602,50.60577,0.0027378,0.98962668,0.0000,03/05.3093/2002,2000,g  9.0,4.0
# From MPC 87068
154P/Brewington,e,17.6331,343.0399,47.8401,4.802561,0.0936472,0.67574780,264.3901,08/28.0/2021,2000,g  2.5,12.0
# From MPEC 2021-F20
155P/Shoemaker,e,6.3966,97.1908,14.6139,6.576778,0.0584365,0.72619162,38.1078,08/28.0/2021,2000,g 13.8,4.0
# From MPEC 2021-O56
156P/Russell-LINEAR,e,17.2626,35.3608,0.4406,3.461062,0.1530700,0.61487047,43.3350,08/28.0/2021,2000,g 15.5,2.0
# From MPEC 2021-P47
157P/Tritton,e,12.4418,287.6560,154.9143,3.550472,0.1473245,0.55756161,304.3855,08/28.0/2021,2000,g 10.0,4.0
# From MPEC 2021-P47
158P/Kowal-LINEAR,e,8.0111,135.5238,172.4224,5.021083,0.0876008,0.04421695,9.2936,08/28.0/2021,2000,g  9.0,4.0
# From MPEC 2021-N06
159P/LONEOS,e,23.4674,54.9759,4.5641,5.853781,0.0695904,0.38183237,83.0906,08/28.0/2021,2000,g 10.0,4.0
# From MPEC 2021-J28
160P/LINEAR,e,15.6173,333.3587,12.7151,3.774645,0.1343971,0.52632655,85.2810,08/28.0/2021,2000,g 15.5,2.0
# From MPC 75721
161P/Hartley-IRAS,e,95.7889,1.5543,46.9572,7.724084,0.0459128,0.83484415,271.9011,08/28.0/2021,2000,g  8.5,6.0
# From MPEC 2021-N06
162P/Siding Spring,e,27.5549,30.9044,357.1474,3.091221,0.1813465,0.58296884,47.7236,08/28.0/2021,2000,g 12.0,4.0
# From MPEC 2020-HN5
163P/NEAT,e,12.7088,102.0844,349.5990,3.767251,0.1347930,0.45190190,101.6327,08/28.0/2021,2000,g 14.5,4.0
# From MPEC 2021-F20
164P/Christensen,e,16.2571,88.2873,325.8330,3.656452,0.1409660,0.54016229,166.9787,08/28.0/2021,2000,g 11.0,4.0
# From MPC 75721
165P/LINEAR,e,15.8955,0.8471,125.9921,17.87547,0.0130412,0.61502089,101.4099,08/28.0/2021,2000,g 11.5,2.0
# From MPC 75722
166P/NEAT,e,15.3708,64.4337,321.4643,13.81803,0.0191882,0.38365280,135.1275,08/28.0/2021,2000,g  5.5,4.0
# From MPC 75722
167P/CINEOS,e,19.1188,295.6667,344.5585,16.21932,0.0150888,0.27190325,111.8506,08/28.0/2021,2000,g  9.5,2.0
# From MPC102101
168P/Hergenrother,e,21.6222,355.4522,14.9990,3.582267,0.1453674,0.62098425,109.5487,08/28.0/2021,2000,g 15.5,4.0
# From MPEC 2021-N06
169P/NEAT,e,11.2988,176.1066,218.0482,2.601348,0.2349127,0.76822304,285.8362,08/28.0/2021,2000,g 16.0,2.0
# From MPEC 2021-O56
170P/Christensen,e,10.1251,142.9225,225.6349,4.199079,0.1145442,0.30382707,291.1351,08/28.0/2021,2000,g 12.0,4.0
# From MPC102102
171P/Spahr,e,21.9350,101.6942,347.0729,3.555211,0.1470300,0.50160756,140.8169,08/28.0/2021,2000,g 13.5,4.0
# From MPEC 2021-BE3
172P/Yeung,e,11.2278,30.8894,209.4116,4.213410,0.1139603,0.20534052,185.6987,08/28.0/2021,2000,g 13.0,4.0
# From MPEC 2021-J28
173P/Mueller,e,16.4942,100.4024,29.2051,5.705213,0.0723263,0.26085055,351.9771,08/28.0/2021,2000,g  7.5,4.0
# From MPC 92985
174P/Echeclus,e,4.3434,173.2136,163.1270,10.72174,0.0280741,0.45743869,65.0351,08/28.0/2021,2000,g  9.4,2.0
# From MPC114608
175P/Hergenrother,e,6.0332,123.3771,57.5018,3.460772,0.1530892,0.43537770,105.8744,08/28.0/2021,2000,g 14.0,4.0
# From MPC 89015
176P/LINEAR,e,0.2347,345.9321,34.9064,3.194749,0.1726032,0.19308361,281.9580,08/28.0/2021,2000,g 15.1,2.0
# From MPEC 2020-L06
177P/Barnard,e,31.2636,272.2161,60.2758,24.43054,0.0081621,0.95532654,44.6674,08/28.0/2021,2000,g 15.0,4.0
# From MPEC 2021-F20
178P/Hug-Bell,e,11.0885,102.8714,297.7927,3.632055,0.1423887,0.48209828,57.9997,08/28.0/2021,2000,g 14.6,4.0
# From MPC 75723
179P/Jedicke,e,19.8979,115.5183,296.8227,5.934320,0.0681785,0.30602600,341.2759,08/28.0/2021,2000,g  2.5,8.0
# From MPC100284
180P/NEAT,e,16.8655,84.5689,94.7865,3.863449,0.1297900,0.35302714,271.2694,08/28.0/2021,2000,g 11.0,4.0
# From MPC 89012
181P/Shoemaker-Levy,e,17.4856,35.4083,336.2342,3.873838,0.1292683,0.70061159,342.7095,08/28.0/2021,2000,g 11.5,4.0
# From MPEC 2014-J10
182P/LONEOS,e,16.2244,72.4770,54.1896,2.951674,0.1943576,0.66317079,310.0031,08/28.0/2021,2000,g 18.0,4.0
# From MPC110085
183P/Korlevic-Juric,e,18.8305,4.3963,166.8794,4.549127,0.1015809,0.13456829,138.4232,08/28.0/2021,2000,g 12.5,2.0
# From MPEC 2020-W26
184P/Lovas,e,4.5732,173.2497,186.4643,3.794101,0.1333646,0.55101691,40.7788,08/28.0/2021,2000,g 13.5,4.0
# From MPC109593
185P/Petriew,e,14.0083,214.1006,181.8736,3.098793,0.1806821,0.69933408,236.4010,08/28.0/2021,2000,g 15.0,4.0
# From MPEC 2020-W26
186P/Garradd,e,28.8668,326.6380,275.4441,4.918026,0.0903687,0.12157010,83.1187,08/28.0/2021,2000,g  7.5,4.0
# From MPEC 2020-SI8
187P/LINEAR,e,13.6342,109.9159,131.7997,4.569013,0.1009184,0.15206327,121.2228,08/28.0/2021,2000,g  9.0,4.0
# From MPC106349
188P/LINEAR-Mueller,e,10.5253,358.9638,26.5625,4.373716,0.1077527,0.41601358,177.9961,08/28.0/2021,2000,g 11.5,4.0
# From MPC106349
189P/NEAT,e,20.0693,281.7288,16.2977,2.946381,0.1948815,0.58875542,288.7108,08/28.0/2021,2000,g 19.0,4.0
# From MPEC 2020-K19
190P/Mueller,e,2.1743,335.5795,50.2822,4.233676,0.1131430,0.52154807,222.6005,08/28.0/2021,2000,g 13.0,4.0
# From MPEC 2021-BE3
191P/McNaught,e,8.8427,98.2326,284.0182,3.634460,0.1422474,0.38581848,22.8816,08/28.0/2021,2000,g 13.0,4.0
# From MPC 75724
192P/Shoemaker-Levy,e,24.5624,51.6184,312.9758,6.475613,0.0598112,0.77329407,300.1645,08/28.0/2021,2000,g 15.0,4.0
# From MPEC 2021-P47
193P/LINEAR-NEAT,e,10.6885,335.1745,8.1056,3.579282,0.1455493,0.39427783,0.3957,08/28.0/2021,2000,g 14.0,4.0
# From MPC 98566
194P/LINEAR,e,11.6133,350.2800,131.5096,3.991612,0.1235895,0.58394274,250.2958,08/28.0/2021,2000,g 16.0,4.0
# From MPC 75724
195P/Hill,e,36.3338,243.1221,249.2934,6.503873,0.0594218,0.31341815,275.0189,08/28.0/2021,2000,g  8.5,4.0
# From MPC 92985
196P/Tichy,e,19.2925,24.1569,12.1929,3.802858,0.1329042,0.42856335,303.1451,08/28.0/2021,2000,g 13.5,4.0
# From MPC 94676
197P/LINEAR,e,25.5329,66.3803,188.7503,2.867755,0.2029509,0.62954687,265.2892,08/28.0/2021,2000,g 16.5,2.0
# From NK 1596
198P/ODAS,e,1.3388,358.2550,69.1834,3.598478,0.1443862,0.44347855,142.6798,08/28.0/2021,2000,g  9.0,4.0
# From MPC 75725
199P/Shoemaker,e,24.9320,92.3771,191.6856,5.892391,0.0689075,0.50597712,311.0787,08/28.0/2021,2000,g 10.0,4.0
# From MPEC 2021-F20
200P/Larsen,e,12.0998,234.7860,134.1118,4.941686,0.0897204,0.33262093,68.2523,08/28.0/2021,2000,g  9.0,4.0
# From MPC 93588
201P/LONEOS,e,5.7390,19.7479,41.5450,3.353854,0.1604678,0.63702439,14.9756,08/28.0/2021,2000,g 14.0,4.0
# From MPEC 2021-N06
202P/Scotti,e,2.0864,177.9902,277.2239,4.062525,0.1203677,0.26568845,239.6778,08/28.0/2021,2000,g 13.5,4.0
# From MPEC 2021-F20
203P/Korlevic,e,2.9729,290.3413,154.7991,4.670774,0.0976384,0.31518354,52.8526,08/28.0/2021,2000,g 12.7,4.0
# From MPC 98566
204P/LINEAR-NEAT,e,6.5999,108.5839,356.3265,3.590699,0.1448557,0.48821263,295.4821,08/28.0/2021,2000,g 14.0,4.0
# From MPC 98566
205P/Giacobini,e,15.3045,179.6052,154.2097,3.542580,0.1478170,0.56808659,339.5378,08/28.0/2021,2000,g 13.0,4.0
# From MPC 75725
206P/Barnard-Boattini,e,33.6332,202.3442,189.4784,3.487854,0.1513096,0.55136438,26.7051,08/28.0/2021,2000,g 19.0,4.0
# From MPC 75725
207P/NEAT,e,10.1850,198.3677,272.9807,3.871134,0.1294037,0.75920429,245.2321,08/28.0/2021,2000,g 16.0,4.0
# From MPEC 2020-W26
208P/McMillan,e,4.4111,36.3438,310.4678,4.045031,0.1211494,0.37392640,227.7906,08/28.0/2021,2000,g 12.5,4.0
# From MPC 90771
209P/LINEAR,e,21.2560,62.7732,152.4626,2.959967,0.1935413,0.67304758,156.2870,08/28.0/2021,2000,g 17.0,2.0
# From MPC105242
210P/Christensen,e,10.2632,93.8294,345.8952,3.164123,0.1751153,0.83322369,88.8029,08/28.0/2021,2000,g 13.5,4.0
# From MPC 96868
211P/Hill,e,18.9212,117.1328,4.2621,3.546002,0.1476031,0.34343731,300.5754,08/28.0/2021,2000,g 12.5,4.0
# From MPEC 2021-F20
212P/NEAT,e,22.2379,98.2940,14.0822,3.888929,0.1285165,0.58806696,235.1673,08/28.0/2021,2000,g 17.0,2.0
# From MPC114608
213P/Van Ness,e,10.3824,311.2991,5.6548,3.347571,0.1609198,0.40826962,230.4386,08/28.0/2021,2000,g 10.5,4.0
# From MPC 92986
214P/LINEAR,e,15.1834,348.2498,190.2298,3.618120,0.1432121,0.48579267,303.5291,08/28.0/2021,2000,g 13.0,4.0
# From MPC133426
215P/NEAT,e,10.5806,56.6850,262.1962,4.328161,0.1094584,0.16676549,70.9391,08/28.0/2021,2000,g 12.6,4.0
# From MPC100284
216P/LINEAR,e,9.0610,359.8089,151.3618,3.867627,0.1295798,0.44688007,248.2505,08/28.0/2021,2000,g 13.0,4.0
# From MPEC 2021-N06
